     2.100          NAVIGATION                              RINEX VERSION / TYPE
fic2rin                                 01/09/2010 00:59:40 PGM / RUN BY / DATE
                                                            END OF HEADER
 1 10  1  8  2  0  0.0 -.771237537265D-04 -.318323145621D-11  .000000000000D+00
     .100000000000D+03 -.207500000000D+02  .592167523297D-08 -.730382350945D+00
    -.114738941193D-05  .383496633731D-02  .703148543835D-05  .515365183067D+04
     .439200000000D+06 -.372529029846D-08 -.225470151143D+00  .596046447754D-07
     .963501413153D+00  .244312500000D+03  .941487209773D+00 -.812891003030D-08
     .195008122871D-09  .100000000000D+01  .156500000000D+04  .000000000000D+00
     .240000000000D+01  .630000000000D+02 -.190921127796D-07  .100000000000D+03
     .432006000000D+06  .400000000000D+01
 2 10  1  8  2  0  0.0  .212955288589D-03  .443378667114D-11  .000000000000D+00
     .980000000000D+02  .676562500000D+02  .481377194149D-08  .292798293522D+01
     .357627868652D-05  .925898214336D-02  .105034559965D-04  .515376325607D+04
     .439200000000D+06 -.171363353729D-06  .185965239520D+01  .428408384323D-07
     .939982269372D+00  .160531250000D+03  .293775978498D+01 -.802354849872D-08
    -.507163982558D-10  .100000000000D+01  .156500000000D+04  .000000000000D+00
     .340000000000D+01  .000000000000D+00 -.172294676304D-07  .980000000000D+02
     .432006000000D+06  .400000000000D+01
 3 10  1  8  2  0  0.0  .498886685818D-03  .522959453519D-11  .000000000000D+00
     .780000000000D+02 -.329375000000D+02  .531272129617D-08  .272468531031D+01
    -.179372727871D-05  .127763092751D-01  .748410820961D-05  .515368168449D+04
     .439200000000D+06  .149011611938D-07  .708866054659D+00 -.150874257088D-06
     .926867982675D+00  .215406250000D+03  .976309730533D+00 -.821248494010D-08
    -.152863510236D-09  .100000000000D+01  .156500000000D+04  .000000000000D+00
     .340000000000D+01  .000000000000D+00 -.419095158577D-08  .780000000000D+02
     .432006000000D+06  .400000000000D+01
 4 10  1  8  2  0  0.0 -.446460675448D-03 -.189857018995D-10  .000000000000D+00
     .270000000000D+02  .645625000000D+02  .490377569051D-08 -.430140209729D+00
     .350922346115D-05  .913496548310D-02  .975281000137D-05  .515361147308D+04
     .439200000000D+06  .838190317154D-07  .187772255827D+01  .875443220139D-07
     .939154120224D+00  .178187500000D+03  .583414348635D+00 -.831820362943D-08
    -.392873507616D-10  .100000000000D+01  .156500000000D+04  .000000000000D+00
     .240000000000D+01  .000000000000D+00 -.605359673500D-08  .270000000000D+02
     .432006000000D+06  .400000000000D+01
 5 10  1  8  2  0  0.0 -.190432183444D-04  .409272615798D-11  .000000000000D+00
     .520000000000D+02  .712812500000D+02  .471376777592D-08 -.193668591765D+01
     .345334410667D-05  .184291042387D-02  .515580177307D-05  .515363036156D+04
     .439200000000D+06 -.111758708954D-07  .291835139127D+01 -.614672899246D-07
     .960348956354D+00  .279687500000D+03  .296639578172D+00 -.829963142725D-08
     .100004165575D-09  .100000000000D+01  .156500000000D+04  .000000000000D+00
     .240000000000D+01  .000000000000D+00 -.884756445885D-08  .520000000000D+02
     .432006000000D+06  .400000000000D+01
 6 10  1  8  2  0  0.0  .261329114437D-03 -.193267624127D-11  .000000000000D+00
     .660000000000D+02 -.242812500000D+02  .523378943691D-08 -.127979859753D+01
    -.119395554066D-05  .586435408331D-02  .803545117378D-05  .515366288185D+04
     .439200000000D+06 -.132247805595D-06  .778322866900D+00  .465661287308D-07
     .934214700215D+00  .213031250000D+03 -.117070180507D+01 -.842642242289D-08
    -.114647632677D-09  .100000000000D+01  .156500000000D+04  .000000000000D+00
     .240000000000D+01  .000000000000D+00 -.512227416039D-08  .660000000000D+02
     .432006000000D+06  .400000000000D+01
 7 10  1  8  2  0  0.0  .469572842121D-05 -.568434188608D-12  .000000000000D+00
     .710000000000D+02 -.348750000000D+02  .423089051929D-08  .119997684099D+01
    -.176392495632D-05  .323601928540D-02  .887550413609D-05  .515373230553D+04
     .439200000000D+06  .931322574615D-08 -.126519996100D+01  .279396772385D-07
     .969968947649D+00  .210562500000D+03  .307249237350D+01 -.796461747257D-08
     .108933108930D-09  .100000000000D+01  .156500000000D+04  .000000000000D+00
     .240000000000D+01  .000000000000D+00 -.107102096081D-07  .710000000000D+02
     .432006000000D+06  .400000000000D+01
 8 10  1  8  2  0  0.0  .192038714886D-05  .454747350886D-12  .000000000000D+00
     .320000000000D+02 -.379062500000D+02  .377015704217D-08  .610401974629D+00
    -.204890966415D-05  .109751629643D-01  .886060297489D-05  .515373294258D+04
     .439200000000D+06  .162050127983D-06 -.120015820773D+01  .838190317154D-07
     .991273136905D+00  .220937500000D+03  .308137555440D+01 -.778460997454D-08
     .135005623526D-09  .100000000000D+01  .156500000000D+04  .000000000000D+00
     .240000000000D+01  .000000000000D+00 -.372529029846D-08  .320000000000D+02
     .432006000000D+06  .400000000000D+01
 9 10  1  8  2  0  0.0  .986997038126D-04  .227373675443D-11  .000000000000D+00
     .990000000000D+02 -.474687500000D+02  .416874507354D-08  .437570506705D+00
    -.244192779064D-05  .206329587381D-01  .884570181370D-05  .515361748695D+04
     .439200000000D+06 -.244006514549D-06 -.129761230374D+01 -.353902578354D-07
     .978780622576D+00  .223406250000D+03  .152556545258D+01 -.825320092180D-08
     .600024993449D-10  .100000000000D+01  .156500000000D+04  .000000000000D+00
     .340000000000D+01  .000000000000D+00 -.558793544769D-08  .990000000000D+02
     .432006000000D+06  .400000000000D+01
10 10  1  8  2  0  0.0 -.322242267430D-04 -.909494701773D-12  .000000000000D+00
     .230000000000D+02  .685625000000D+02  .481412909923D-08 -.203480958688D+01
     .326335430145D-05  .901281984989D-02  .454299151897D-05  .515343106651D+04
     .439200000000D+06  .577419996262D-07  .294489221136D+01 -.124797224998D-06
     .955415879558D+00  .287187500000D+03  .635723983541D+00 -.828320217148D-08
     .172150027883D-09  .100000000000D+01  .156500000000D+04  .000000000000D+00
     .340000000000D+01  .000000000000D+00 -.279396772385D-08  .230000000000D+02
     .432006000000D+06  .400000000000D+01
11 10  1  8  2  0  0.0 -.385292805731D-04 -.204636307899D-11  .000000000000D+00
     .360000000000D+02  .389062500000D+02  .618454332534D-08  .111450139763D+01
     .206753611565D-05  .104311248288D-01  .933371484280D-05  .515371761894D+04
     .439200000000D+06 -.100582838058D-06  .164805578816D+01  .782310962677D-07
     .888346090266D+00  .162281250000D+03  .781447095231D+00 -.886251201634D-08
    -.257510726355D-09  .100000000000D+01  .156500000000D+04  .000000000000D+00
     .240000000000D+01  .000000000000D+00 -.116415321827D-07  .360000000000D+02
     .432006000000D+06  .400000000000D+01
12 10  1  8  2  0  0.0 -.165979843587D-03  .500222085975D-11  .000000000000D+00
     .110000000000D+02 -.234687500000D+02  .451911681078D-08  .132777997863D+01
    -.128149986267D-05  .328773050569D-02  .702030956745D-05  .515377208328D+04
     .439200000000D+06  .670552253723D-07 -.211904384520D+00  .167638063431D-07
     .969594060262D+00  .246937500000D+03 -.558785931128D+00 -.798318967475D-08
     .188222125921D-09  .100000000000D+01  .156500000000D+04  .000000000000D+00
     .240000000000D+01  .000000000000D+00 -.121071934700D-07  .110000000000D+02
     .432006000000D+06  .400000000000D+01
13 10  1  8  2  0  0.0  .306664966047D-03  .000000000000D+00  .000000000000D+00
     .410000000000D+02 -.407500000000D+02  .390801992757D-08 -.261644921400D+01
    -.206753611565D-05  .401907088235D-02  .589340925217D-05  .515360518456D+04
     .439200000000D+06  .409781932831D-07 -.224993268522D+01  .987201929092D-07
     .993867434865D+00  .283687500000D+03  .164044611402D+01 -.783996942334D-08
    -.124648049234D-09  .100000000000D+01  .156500000000D+04  .000000000000D+00
     .240000000000D+01  .000000000000D+00 -.111758708954D-07  .410000000000D+02
     .432006000000D+06  .400000000000D+01
14 10  1  8  2  0  0.0 -.257464125752D-05  .454747350886D-11  .000000000000D+00
     .870000000000D+02 -.340312500000D+02  .397516558160D-08 -.275980108470D+01
    -.169314444065D-05  .503577978816D-02  .528059899807D-05  .515369667244D+04
     .439200000000D+06  .912696123123D-07 -.227085172618D+01 -.912696123123D-07
     .987232587891D+00  .290687500000D+03 -.209534935459D+01 -.787961393183D-08
    -.117862052285D-09  .100000000000D+01  .156500000000D+04  .000000000000D+00
     .240000000000D+01  .000000000000D+00 -.884756445885D-08  .870000000000D+02
     .432006000000D+06  .400000000000D+01
15 10  1  8  2  0  0.0 -.314577948302D-03  .193267624127D-11  .000000000000D+00
     .920000000000D+02 -.341250000000D+02  .478412784956D-08 -.262906190266D+01
    -.166520476341D-05  .226282700896D-02  .482797622681D-05  .515371310043D+04
     .439200000000D+06 -.167638063431D-07 -.233045174604D+01  .409781932831D-07
     .955023309880D+00  .284781250000D+03 -.372702700243D+00 -.833570435840D-08
    -.149649090628D-09  .100000000000D+01  .156500000000D+04  .000000000000D+00
     .240000000000D+01  .000000000000D+00 -.977888703346D-08  .920000000000D+02
     .432006000000D+06  .400000000000D+01
16 10  1  8  2  0  0.0 -.281361863017D-04 -.409272615798D-11  .000000000000D+00
     .750000000000D+02 -.181562500000D+02  .442732727309D-08 -.105171192523D+01
    -.959262251854D-06  .550218659919D-02  .706128776073D-05  .515368535042D+04
     .439200000000D+06 -.335276126862D-07 -.194658071079D+00 -.651925802231D-07
     .970905482933D+00  .250250000000D+03 -.273598378505D+00 -.802497712965D-08
     .241795786051D-09  .100000000000D+01  .156500000000D+04  .000000000000D+00
     .240000000000D+01  .000000000000D+00 -.977888703346D-08  .750000000000D+02
     .432006000000D+06  .400000000000D+01
